ONEWEB-0228             
1 48780U 21045P   23249.01255246 -.00000115  00000+0 -34067-3 0  9995
2 48780  87.8950 101.3327 0001824  88.4377 271.6962 13.15547324111983
